CCSDS_OEM_VERS = 1.0
CREATION_DATE  = 2017-05-11T11:05:38
ORIGINATOR     = GMAT USER

META_START
OBJECT_NAME          = MOPSSat_alt_35785_km_RAAN_0_127
OBJECT_ID            = SatId
CENTER_NAME          = Earth
REF_FRAME            = EME2000
TIME_SYSTEM          = UTC
START_TIME           = 2017-01-01T00:00:00.000
USEABLE_START_TIME   = 2017-01-01T00:00:00.000
USEABLE_STOP_TIME    = 2017-01-02T00:00:00.000
STOP_TIME            = 2017-01-02T00:00:00.000
INTERPOLATION        = Lagrange
INTERPOLATION_DEGREE = 7 
META_STOP


                                                                                   

2017-01-01T19:51:40.000  -3.923601046416128e+03  -3.934373588244589e+04  -6.852062068390098e+02   3.207229048826030e+00   6.473250014582295e-01   1.118120629873828e-02
2017-01-01T19:51:50.000  -3.891527493645546e+03  -3.933724994959604e+04  -6.850941740078048e+02   3.207481072518096e+00   6.498617835454416e-01   1.122536369886893e-02
2017-01-01T19:52:00.000  -3.859451430351393e+03  -3.933073864181307e+04  -6.849816994784813e+02   3.207731210534170e+00   6.523999997580797e-01   1.126954612400802e-02
2017-01-01T19:52:10.000  -3.827372875730609e+03  -3.932420194482333e+04  -6.848687830019575e+02   3.207979459878374e+00   6.549396497695975e-01   1.131375356858753e-02
2017-01-01T19:52:20.000  -3.795291848359654e+03  -3.931763984422394e+04  -6.847554243269173e+02   3.208225817556128e+00   6.574807333009716e-01   1.135798602786681e-02
2017-01-01T19:52:30.000  -3.763208366918390e+03  -3.931105232562989e+04  -6.846416232023529e+02   3.208470280568513e+00   6.600232500634015e-01   1.140224349693516e-02
2017-01-01T19:52:40.000  -3.731122450026539e+03  -3.930443937464130e+04  -6.845273793769993e+02   3.208712845913579e+00   6.625671997712226e-01   1.144652597093658e-02
2017-01-01T19:52:50.000  -3.699034116658902e+03  -3.929780097692560e+04  -6.844126926007525e+02   3.208953510582946e+00   6.651125821091451e-01   1.149083344449951e-02
2017-01-01T19:53:00.000  -3.666943385837250e+03  -3.929113711815758e+04  -6.842975626236351e+02   3.209192271564392e+00   6.676593967564965e-01   1.153516591215881e-02
2017-01-01T19:53:10.000  -3.634850276630212e+03  -3.928444778401803e+04  -6.841819891957730e+02   3.209429125841764e+00   6.702076433872900e-01   1.157952336835697e-02
2017-01-01T19:53:20.000  -3.602754808462223e+03  -3.927773296026145e+04  -6.840659720685649e+02   3.209664070392942e+00   6.727573216455189e-01   1.162390580701404e-02
2017-01-01T19:53:30.000  -3.570657000697615e+03  -3.927099263262631e+04  -6.839495109931314e+02   3.209897102192669e+00   6.753084311783256e-01   1.166831322210506e-02
2017-01-01T19:53:40.000  -3.538556872807582e+03  -3.926422678687064e+04  -6.838326057209317e+02   3.210128218211387e+00   6.778609716226943e-01   1.171274560742831e-02
2017-01-01T19:53:50.000  -3.506454443633709e+03  -3.925743540861705e+04  -6.837152560010818e+02   3.210357415420542e+00   6.804149426639984e-01   1.175720295762454e-02
2017-01-01T19:54:00.000  -3.474349732126368e+03  -3.925061848350786e+04  -6.835974615830406e+02   3.210584690787240e+00   6.829703439772904e-01   1.180168526715495e-02
2017-01-01T19:54:10.000  -3.442242757154172e+03  -3.924377599716557e+04  -6.834792222159216e+02   3.210810041275658e+00   6.855271752424268e-01   1.184619253056451e-02
2017-01-01T19:54:20.000  -3.410133538016427e+03  -3.923690793529910e+04  -6.833605376503310e+02   3.211033463843213e+00   6.880854361033908e-01   1.189072474177385e-02
2017-01-01T19:54:30.000  -3.378022094020366e+03  -3.923001428361652e+04  -6.832414076368609e+02   3.211254955443756e+00   6.906451262018094e-01   1.193528189466274e-02
2017-01-01T19:54:40.000  -3.345908444575538e+03  -3.922309502784456e+04  -6.831218319264235e+02   3.211474513026845e+00   6.932062451694641e-01   1.197986398293970e-02
2017-01-01T19:54:50.000  -3.313792609168351e+03  -3.921615015372495e+04  -6.830018102701910e+02   3.211692133538075e+00   6.957687926302154e-01   1.202447100017543e-02
2017-01-01T19:55:00.000  -3.281674607329997e+03  -3.920917964700609e+04  -6.828813424194484e+02   3.211907813919163e+00   6.983327682026281e-01   1.206910293984863e-02
2017-01-01T19:55:10.000  -3.249554458624907e+03  -3.920218349344072e+04  -6.827604281255570e+02   3.212121551108063e+00   7.008981715008707e-01   1.211375979536157e-02
2017-01-01T19:55:20.000  -3.217432182536010e+03  -3.919516167876180e+04  -6.826390671395344e+02   3.212333342039780e+00   7.034650021438306e-01   1.215844156019879e-02
2017-01-01T19:55:30.000  -3.185307798541253e+03  -3.918811418869823e+04  -6.825172592123278e+02   3.212543183645781e+00   7.060332597490420e-01   1.220314822782142e-02
2017-01-01T19:55:40.000  -3.153181326113654e+03  -3.918104100897507e+04  -6.823950040948165e+02   3.212751072854016e+00   7.086029439326611e-01   1.224787979166673e-02
2017-01-01T19:55:50.000  -3.121052784644677e+03  -3.917394212529569e+04  -6.822723015375058e+02   3.212957006589339e+00   7.111740543156321e-01   1.229263624525545e-02
2017-01-01T19:56:00.000  -3.088922193559203e+03  -3.916681752336796e+04  -6.821491512909763e+02   3.213160981772819e+00   7.137465905144467e-01   1.233741758203092e-02
2017-01-01T19:56:10.000  -3.056789572327184e+03  -3.915966718890696e+04  -6.820255531059333e+02   3.213362995321681e+00   7.163205521401870e-01   1.238222379534247e-02
2017-01-01T19:56:20.000  -3.024654940495558e+03  -3.915249110764057e+04  -6.819015067333025e+02   3.213563044148986e+00   7.188959387960426e-01   1.242705487840213e-02
2017-01-01T19:56:30.000  -2.992518317714105e+03  -3.914528926531719e+04  -6.817770119243638e+02   3.213761125163610e+00   7.214727500751285e-01   1.247191082424672e-02
2017-01-01T19:56:40.000  -2.960379723640932e+03  -3.913806164768378e+04  -6.816520684303713e+02   3.213957235270780e+00   7.240509855680938e-01   1.251679162587026e-02
2017-01-01T19:56:50.000  -2.928239178366168e+03  -3.913080824058376e+04  -6.815266760042456e+02   3.214151371369672e+00   7.266306448289980e-01   1.256169727562993e-02
2017-01-01T19:57:00.000  -2.896096701898638e+03  -3.912352902983904e+04  -6.814008343985346e+02   3.214343530356358e+00   7.292117274165993e-01   1.260662776596486e-02
2017-01-01T19:57:10.000  -2.863952314356797e+03  -3.911622400129366e+04  -6.812745433661700e+02   3.214533709122690e+00   7.317942328790006e-01   1.265158308912880e-02
2017-01-01T19:57:20.000  -2.831806035229370e+03  -3.910889314064613e+04  -6.811478026575646e+02   3.214721904560694e+00   7.343781608130208e-01   1.269656323822366e-02
2017-01-01T19:57:30.000  -2.799657884112896e+03  -3.910153643361652e+04  -6.810206120235050e+02   3.214908113558172e+00   7.369635108049574e-01   1.274156820616832e-02
2017-01-01T19:57:40.000  -2.767507880544690e+03  -3.909415386590913e+04  -6.808929712145032e+02   3.215092332999733e+00   7.395502824439664e-01   1.278659798593155e-02
2017-01-01T19:57:50.000  -2.735356044419003e+03  -3.908674542330461e+04  -6.807648799823904e+02   3.215274559764133e+00   7.421384752887424e-01   1.283165256995202e-02
2017-01-01T19:58:00.000  -2.703202395678193e+03  -3.907931109159257e+04  -6.806363380791533e+02   3.215454790726334e+00   7.447280888921762e-01   1.287673195056748e-02
2017-01-01T19:58:10.000  -2.671046954312658e+03  -3.907185085657034e+04  -6.805073452569101e+02   3.215633022757383e+00   7.473191228014209e-01   1.292183612001591e-02
2017-01-01T19:58:20.000  -2.638889740670301e+03  -3.906436470411808e+04  -6.803779012692110e+02   3.215809252722976e+00   7.499115765327735e-01   1.296696506999827e-02
2017-01-01T19:58:30.000  -2.606730775039886e+03  -3.905685262009902e+04  -6.802480058693128e+02   3.215983477485508e+00   7.525054496053986e-01   1.301211879226559e-02
2017-01-01T19:58:40.000  -2.574570077815195e+03  -3.904931459039831e+04  -6.801176588108514e+02   3.216155693903228e+00   7.551007415280491e-01   1.305729727838775e-02
2017-01-01T19:58:50.000  -2.542407668769317e+03  -3.904175060075322e+04  -6.799868598449041e+02   3.216325898834151e+00   7.576974518576086e-01   1.310250052077264e-02
2017-01-01T19:59:00.000  -2.510243567780417e+03  -3.903416063692286e+04  -6.798556087229249e+02   3.216494089132123e+00   7.602955801405342e-01   1.314772851164677e-02
2017-01-01T19:59:10.000  -2.478077794667724e+03  -3.902654468465028e+04  -6.797239051960904e+02   3.216660261647756e+00   7.628951259260526e-01   1.319298124328499e-02
2017-01-01T19:59:20.000  -2.445910369607923e+03  -3.901890272975760e+04  -6.795917490169436e+02   3.216824413225996e+00   7.654960887326746e-01   1.323825870742757e-02
2017-01-01T19:59:30.000  -2.413741312826148e+03  -3.901123475807656e+04  -6.794591399381916e+02   3.216986540708001e+00   7.680984680729755e-01   1.328356089571157e-02
2017-01-01T19:59:40.000  -2.381570644595923e+03  -3.900354075544699e+04  -6.793260777126829e+02   3.217146640931042e+00   7.707022634536594e-01   1.332888779967199e-02
2017-01-01T19:59:50.000  -2.349398385548750e+03  -3.899582070779446e+04  -6.791925620947472e+02   3.217304710727219e+00   7.733074743503217e-01   1.337423941030241e-02
2017-01-01T20:00:00.000  -2.317224556257291e+03  -3.898807460102726e+04  -6.790585928384143e+02   3.217460746925296e+00   7.759141002413344e-01   1.341961571864487e-02
2017-01-01T20:00:10.000  -2.285049177399597e+03  -3.898030242107659e+04  -6.789241696981110e+02   3.217614746349933e+00   7.785221405945022e-01   1.346501671555761e-02
2017-01-01T20:00:20.000  -2.252872269033066e+03  -3.897250415372146e+04  -6.787892924256298e+02   3.217766705825191e+00   7.811315949258922e-01   1.351044239273910e-02
2017-01-01T20:00:30.000  -2.220693851320541e+03  -3.896467978476361e+04  -6.786539607731562e+02   3.217916622171018e+00   7.837424627409898e-01   1.355589274170376e-02
2017-01-01T20:00:40.000  -2.188513944366225e+03  -3.895682929998850e+04  -6.785181744925942e+02   3.218064492204078e+00   7.863547435479589e-01   1.360136775401273e-02
